[{"OBJECT_NAME":"HULIANWANG DIGUI-64","OBJECT_ID":"2025-174G","EPOCH":"2026-03-09T23:10:48.024768","MEAN_MOTION":13.24422165,"ECCENTRICITY":0.00012524,"INCLINATION":86.4872,"RA_OF_ASC_NODE":285.482,"ARG_OF_PERICENTER":95.7947,"MEAN_ANOMALY":264.333,"EPHEMERIS_TYPE":0,"CLASSIFICATION_TYPE":"U","NORAD_CAT_ID":65170,"ELEMENT_SET_NO":999,"REV_AT_EPOCH":2765,"BSTAR":3.459576e-5,"MEAN_MOTION_DOT":3.0e-7,"MEAN_MOTION_DDOT":0},{"OBJECT_NAME":"SL-14 DEB","OBJECT_ID":"1991-056S","EPOCH":"2026-03-09T08:35:20.457888","MEAN_MOTION":13.21714724,"ECCENTRICITY":0.00252218,"INCLINATION":82.5887,"RA_OF_ASC_NODE":214.289,"ARG_OF_PERICENTER":211.1552,"MEAN_ANOMALY":148.8079,"EPHEMERIS_TYPE":0,"CLASSIFICATION_TYPE":"U","NORAD_CAT_ID":45280,"ELEMENT_SET_NO":999,"REV_AT_EPOCH":29192,"BSTAR":0.0034035227,"MEAN_MOTION_DOT":1.418e-5,"MEAN_MOTION_DDOT":0}]
